SatCatId,ObjectName,LaunchYear,OrbitalPeriod,LaunchMass,StatusCode,Inclination,Status,UcsData,OrbitClassEstimated,LaunchSiteCountry,Owner,UseType,Purpose,LaunchVehicleClass,TLE1,TLE2,MeanMotion,Eccentricity,OrbitClass
52747,NUSAT-28 (ALICE LEE),2022,94.03,42.0,+,97.48,Active,1,LEO,USA,Argentina,Commercial,Earth Observation,Falcon,1 52747U 22057R   24326.11575504  .00030159  00000+0  99275-3 0  9998,2 52747  97.4758  85.8537 0005476 275.1577  84.9039 15.31436342138668,15.31436342,0.0005476,LEO
52748,NUSAT-30 (MARGHERITA),2022,89.92,42.0,+,97.4,Active,1,LEO,USA,Argentina,Commercial,Earth Observation,Falcon,1 52748U 22057S   24326.12597256  .00884804  39279-3  15038-2 0  9990,2 52748  97.3960  93.0014 0006592 283.1887  76.8657 16.02661724139623,16.02661724,0.0006592,LEO
52749,CARCARA 1 (ICEYE-X18),2022,93.04,80.0,+,97.57,Active,1,LEO,USA,Brazil,Commercial,Earth Observation,Falcon,1 52749U 22057T   24326.12583053  .00088944  00000+0  16934-2 0  9994,2 52749  97.5737  92.5555 0009294 282.3418  77.6792 15.47846940138390,15.4784694,0.0009294,LEO
52752,NUSAT-31 (RUBY PAYNE-S),2022,93.39,42.0,+,97.59,Active,1,LEO,USA,Argentina,Commercial,Earth Observation,Falcon,1 52752U 22057W   24326.13871510  .00044692  00000+0  10463-2 0  9990,2 52752  97.5941  95.0650 0006710 294.5597  65.4950 15.41966383138498,15.41966383,0.000671,LEO
52754,HAWK-5C,2022,94.16,-1.0,+,97.6,Active,0,LEO,USA,USA,Unknown,Unknown,Unknown,1 52754U 22057Y   24325.31861524  .00015608  00000+0  55042-3 0  9993,2 52754  97.5953  89.8622 0006826 329.2511  30.8328 15.29333449138024,15.29333449,0.0006826,LEO
52755,ICEYE-X24,2022,91.27,80.0,+,97.56,Active,1,LEO,USA,USA,Commercial,Earth Observation,Falcon,1 52755U 22057Z   24326.18212139  .00384953  00000+0  21430-2 0  9997,2 52755  97.5613 102.7354 0006741 277.8572  82.1929 15.78388952139027,15.78388952,0.0006741,LEO
52756,HAWK-5B,2022,94.16,-1.0,+,97.59,Active,0,LEO,USA,USA,Unknown,Unknown,Unknown,1 52756U 22057AA  24325.77644516  .00017718  00000+0  62389-3 0  9991,2 52756  97.5944  88.7663 0007197 322.2787  37.7947 15.29352230138098,15.2935223,0.0007197,LEO
52757,HAWK-5A,2022,94.16,-1.0,+,97.6,Active,0,LEO,USA,USA,Unknown,Unknown,Unknown,1 52757U 22057AB  24325.97250396  .00017293  00000+0  60888-3 0  9993,2 52757  97.5950  89.7428 0007589 323.4485  36.6236 15.29356258138126,15.29356258,0.0007589,LEO
52758,CARCARA 2 (ICEYE-X19),2022,92.54,80.0,+,97.57,Active,1,LEO,USA,Brazil,Commercial,Earth Observation,Falcon,1 52758U 22057AC  24326.12299674  .00122926  00000+0  17265-2 0  9994,2 52758  97.5724  95.8330 0009625 286.2129  73.8065 15.56238261138586,15.56238261,0.0009625,LEO
52759,ICEYE-X20,2022,92.89,80.0,+,97.58,Active,1,LEO,USA,Finland,Commercial,Earth Observation,Falcon,1 52759U 22057AD  24326.12089367  .00038509  00000+0  67780-3 0  9992,2 52759  97.5845 100.9954 0006383 273.7163  86.3358 15.50343565138906,15.50343565,0.0006383,LEO
52760,VIGORIDE-3,2022,94.72,-1.0,+,97.59,Active,0,LEO,USA,USA,Unknown,Unknown,Unknown,1 52760U 22057AE  24325.77645479  .00006190  00000+0  28862-3 0  9995,2 52760  97.5929  85.5414 0009576 334.4316  25.6444 15.20202883137840,15.20202883,0.0009576,LEO
52761,ION SCV-006,2022,94.24,-1.0,+,97.55,Active,0,LEO,USA,Italy,Unknown,Unknown,Unknown,1 52761U 22057AF  24325.80279896  .00013499  00000+0  49266-3 0  9997,2 52761  97.5455  85.7478 0021363   2.6743 357.4607 15.28044510138020,15.2804451,0.0021363,LEO
52762,ICEYE-X17,2022,93.66,80.0,+,97.58,Active,1,LEO,USA,USA,Commercial,Earth Observation,Falcon,1 52762U 22057AG  24326.16478533  .00047812  00000+0  12880-2 0  9994,2 52762  97.5804  93.7509 0012315 290.3111  69.6809 15.37609558138446,15.37609558,0.0012315,LEO
52763,SHERPA-AC1,2022,94.44,-1.0,+,97.6,Active,0,LEO,USA,USA,Unknown,Unknown,Unknown,1 52763U 22057AH  24324.95746142  .00010768  00000+0  43692-3 0  9990,2 52763  97.5976  87.0498 0009280 327.6683  32.3985 15.24759292137858,15.24759292,0.000928,LEO
52764,NUSAT-29 (EDITH CLARKE),2022,93.54,42.0,+,97.46,Active,1,LEO,USA,Argentina,Commercial,Earth Observation,Falcon,1 52764U 22057AJ  24326.13378221  .00044491  00000+0  11295-2 0  9995,2 52764  97.4599  85.8097 0006273 254.0815 105.9740 15.39510405138730,15.39510405,0.0006273,LEO
52765,ARMSAT1 URDANETA,2022,93.29,-1.0,+,97.6,Active,0,LEO,USA,Spain,Unknown,Unknown,Unknown,1 52765U 22057AK  24326.16333856  .00028939  00000+0  64242-3 0  9994,2 52765  97.5953  98.0767 0006982 281.7960  78.2503 15.43650252138662,15.43650252,0.0006982,LEO
52766,VARISAT 1C & CELESTIS-21,2022,93.16,-1.0,+,97.6,Active,0,LEO,USA,USA,Unknown,Unknown,Unknown,1 52766U 22057AL  24325.83893407  .00048952  00000+0  10072-2 0  9999,2 52766  97.5974  96.5394 0007858 290.7673  69.2733 15.45773704138529,15.45773704,0.0007858,LEO
52770,PLATFORM-1,2022,93.64,-1.0,+,97.59,Active,0,LEO,USA,Bulgaria,Unknown,Unknown,Unknown,1 52770U 22057AQ  24325.30496628  .00023821  00000+0  64159-3 0  9994,2 52770  97.5913  93.2864 0007970 296.6836  63.3592 15.37811494138320,15.37811494,0.000797,LEO
52771,OMNI-L2,2022,97.19,-1.0,+,97.53,Active,0,LEO,USA,USA,Unknown,Unknown,Unknown,1 52771U 22057AR  24325.23175240  .00000943  00000+0  12600-3 0  9995,2 52771  97.5255  53.8336 0007714  47.5682 312.6183 14.81647034135478,14.81647034,0.0007714,LEO
52775,GUARDIAN,2022,93.52,-1.0,+,97.59,Active,0,LEO,USA,Spain,Unknown,Unknown,Unknown,1 52775U 22057AV  24326.13019472  .00037866  00000+0  95278-3 0  9999,2 52775  97.5896  92.6021 0006265 322.2291  37.8513 15.39819548138330,15.39819548,0.0006265,LEO
52785,GEESAT-1 01,2022,96.47,100.0,+,50.0,Active,1,LEO,PRC,China,Commercial,Earth Observation/Navigation,Long March,1 52785U 22058A   24326.13023685  .00007442  00000+0  73478-3 0  9997,2 52785  49.9952  14.7493 0005743 122.6074 237.5423 14.92761747134356,14.92761747,0.0005743,LEO
52786,GEESAT-1 02,2022,96.47,100.0,+,50.0,Active,1,LEO,PRC,China,Commercial,Earth Observation/Navigation,Long March,1 52786U 22058B   24326.09319974  .00007969  00000+0  78484-3 0  9998,2 52786  50.0012  15.0172 0002200 118.6816 241.4347 14.92776300134348,14.927763,0.00022,LEO
52787,GEESAT-1 03,2022,96.47,100.0,+,49.99,Active,1,LEO,PRC,China,Commercial,Earth Observation/Navigation,Long March,1 52787U 22058C   24326.12272688  .00007632  00000+0  75305-3 0  9999,2 52787  49.9892  14.1991 0005275 118.8181 241.3291 14.92755393134349,14.92755393,0.0005275,LEO
52788,GEESAT-1 04,2022,96.46,100.0,+,50.01,Active,1,LEO,PRC,China,Commercial,Earth Observation/Navigation,Long March,1 52788U 22058D   24326.13785165  .00008021  00000+0  78969-3 0  9992,2 52788  50.0055  14.9396 0001430 101.2619 258.8484 14.92782941134348,14.92782941,0.000143,LEO
52789,GEESAT-1 05,2022,96.47,100.0,+,49.99,Active,1,LEO,PRC,China,Commercial,Earth Observation/Navigation,Long March,1 52789U 22058E   24326.15278213  .00007945  00000+0  78265-3 0  9999,2 52789  49.9890  13.6134 0004885  85.7475 274.4025 14.92768465134353,14.92768465,0.0004885,LEO
52790,GEESAT-1 06,2022,96.47,100.0,+,50.01,Active,1,LEO,PRC,China,Commercial,Earth Observation/Navigation,Long March,1 52790U 22058F   24326.10064133  .00007650  00000+0  75448-3 0  9993,2 52790  50.0068  14.8263 0005051  80.0978 280.0534 14.92768715134348,14.92768715,0.0005051,LEO
52791,GEESAT-1 07,2022,96.47,100.0,+,49.99,Active,1,LEO,PRC,China,Commercial,Earth Observation/Navigation,Long March,1 52791U 22058G   24326.11512631  .00007528  00000+0  74312-3 0  9999,2 52791  49.9910  13.5112 0004644 120.6137 239.5263 14.92753198134354,14.92753198,0.0004644,LEO
52792,GEESAT-1 08,2022,96.47,100.0,+,49.99,Active,1,LEO,PRC,China,Commercial,Earth Observation/Navigation,Long March,1 52792U 22058H   24326.14542803  .00008081  00000+0  79537-3 0  9996,2 52792  49.9943  13.2989 0004422 143.7187 216.4055 14.92782285134368,14.92782285,0.0004422,LEO
52793,GEESAT-1 09,2022,96.47,100.0,+,50.0,Active,1,LEO,PRC,China,Commercial,Earth Observation/Navigation,Long March,1 52793U 22058J   24326.10817828  .00007392  00000+0  72978-3 0  9991,2 52793  49.9995  14.2454 0008247  81.8072 278.3805 14.92762349134389,14.92762349,0.0008247,LEO
52817,NILESAT 301,2022,1436.09,3500.0,+,0.05,Active,1,GSO,USA,Egypt,Government,Communications,Falcon,1 52817U 22061A   24326.00860167 -.00000056  00000+0  00000+0 0  9999,2 52817   0.0558  29.1836 0003537 235.0259 152.4040  1.00272232  8986,1.00272232,0.0003537,GEO
52830,STARLINK-4091,2022,95.44,260.0,+,53.22,Active,1,LEO,USA,USA,Commercial,Communications,Falcon,1 52830U 22062A   24324.51073645  .00001428  00000+0  10780-3 0  9999,2 52830  53.2180   7.4735 0001448  93.7694 266.3464 15.08840002134557,15.08840002,0.0001448,LEO
52831,STARLINK-4089,2022,95.44,260.0,+,53.22,Active,1,LEO,USA,USA,Commercial,Communications,Falcon,1 52831U 22062B   24325.96063889  .00001299  00000+0  99692-4 0  9995,2 52831  53.2152   0.7673 0001737  91.2937 268.8254 15.08847641134772,15.08847641,0.0001737,LEO
52832,STARLINK-4083,2022,95.44,260.0,+,53.22,Active,1,LEO,USA,USA,Commercial,Communications,Falcon,1 52832U 22062C   24325.09583305  .00000077  00000+0  22907-4 0  9998,2 52832  53.2161   4.6540 0001308  81.3555 278.7585 15.08844116134130,15.08844116,0.0001308,LEO
52833,STARLINK-4086,2022,95.44,260.0,+,53.22,Active,1,LEO,USA,USA,Commercial,Communications,Falcon,1 52833U 22062D   24325.48959369  .00001422  00000+0  10742-3 0  9997,2 52833  53.2185   2.8890 0001649 107.0544 253.0629 15.08841733134190,15.08841733,0.0001649,LEO
52834,STARLINK-4108,2022,95.44,260.0,+,53.22,Active,1,LEO,USA,USA,Commercial,Communications,Falcon,1 52834U 22062E   24325.54846880  .00001017  00000+0  81957-4 0  9995,2 52834  53.2172   2.6232 0001455  94.7849 265.3309 15.08847235134206,15.08847235,0.0001455,LEO
52835,STARLINK-4080,2022,95.44,260.0,+,53.22,Active,1,LEO,USA,USA,Commercial,Communications,Falcon,1 52835U 22062F   24325.54479028  .00001038  00000+0  83289-4 0  9995,2 52835  53.2171   2.6394 0001307  91.3950 268.7191 15.08846189134200,15.08846189,0.0001307,LEO
